start=new Date('2023-04-24T00:00:00.000Z').valueOf();
sats=[{"TLE_LINE2":"2 46028  53.0530 165.2516 0001188  84.1017 276.0107 15.06434944150473","EPOCH":"2023-04-23T13:50:03.217632","ELEMENT_SET_NO":"999","REF_FRAME":"TEME","LAUNCH_DATE":"2020-08-07","COUNTRY_CODE":"US","RCS_SIZE":"LARGE","MEAN_ELEMENT_THEORY":"SGP4","TIME_SYSTEM":"UTC","REV_AT_EPOCH":"15047","FILE":"3892831","EPHEMERIS_TYPE":"0","OBJECT_NAME":"STARLINK-1523","MEAN_MOTION_DDOT":"0.0000000000000","PERIAPSIS":"546.284","INCLINATION":"53.0530","TLE_LINE1":"1 46028U 20055B   23113.57642613  .00017466  00000-0  11874-2 0  9993","SITE":"AFETR","MEAN_ANOMALY":"276.0107","MEAN_MOTION":"15.06434944","PERIOD":"95.590","MEAN_MOTION_DOT":"0.00017466","ARG_OF_PERICENTER":"84.1017","CLASSIFICATION_TYPE":"U","GP_ID":"230656442","BSTAR":"0.00118740000000","NORAD_CAT_ID":"46028","CENTER_NAME":"EARTH","ECCENTRICITY":"0.00011880","OBJECT_ID":"2020-055B","DECAY_DATE":null,"OBJECT_TYPE":"PAYLOAD","APOAPSIS":"547.929","RA_OF_ASC_NODE":"165.2516","SEMIMAJOR_AXIS":"6925.241"},{"MEAN_ELEMENT_THEORY":"SGP4","TIME_SYSTEM":"UTC","REV_AT_EPOCH":"15047","TLE_LINE2":"2 46029  53.0530 164.9829 0001301  80.4794 279.6342 15.06419893150471","EPOCH":"2023-04-23T15:15:01.809504","ELEMENT_SET_NO":"999","REF_FRAME":"TEME","COUNTRY_CODE":"US","LAUNCH_DATE":"2020-08-07","RCS_SIZE":"LARGE","CLASSIFICATION_TYPE":"U","GP_ID":"230657692","ARG_OF_PERICENTER":"80.4794","MEAN_MOTION_DOT":"0.00016753","NORAD_CAT_ID":"46029","ECCENTRICITY":"0.00013010","CENTER_NAME":"EARTH","BSTAR":"0.00114030000000","OBJECT_TYPE":"PAYLOAD","APOAPSIS":"548.054","DECAY_DATE":null,"OBJECT_ID":"2020-055C","SEMIMAJOR_AXIS":"6925.288","RA_OF_ASC_NODE":"164.9829","MEAN_MOTION_DDOT":"0.0000000000000","EPHEMERIS_TYPE":"0","FILE":"3892831","OBJECT_NAME":"STARLINK-1526","TLE_LINE1":"1 46029U 20055C   23113.63543761  .00016753  00000-0  11403-2 0  9991","INCLINATION":"53.0530","SITE":"AFETR","MEAN_ANOMALY":"279.6342","PERIAPSIS":"546.252","PERIOD":"95.591","MEAN_MOTION":"15.06419893"},{"LAUNCH_DATE":"2020-08-07","COUNTRY_CODE":"US","RCS_SIZE":"LARGE","ELEMENT_SET_NO":"999","EPOCH":"2023-04-23T15:41:30.576768","TLE_LINE2":"2 46030  53.0503 164.9015 0000913  83.2709 276.8384 15.06454701150433","REF_FRAME":"TEME","TIME_SYSTEM":"UTC","REV_AT_EPOCH":"15043","MEAN_ELEMENT_THEORY":"SGP4","MEAN_MOTION":"15.06454701","PERIOD":"95.589","FILE":"3892831","EPHEMERIS_TYPE":"0","OBJECT_NAME":"STARLINK-1534","MEAN_MOTION_DDOT":"0.0000000000000","PERIAPSIS":"546.414","MEAN_ANOMALY":"276.8384","INCLINATION":"53.0503","TLE_LINE1":"1 46030U 20055D   23113.65382612  .00024285  00000-0  16412-2 0  9995","SITE":"AFETR","DECAY_DATE":null,"OBJECT_ID":"2020-055D","OBJECT_TYPE":"PAYLOAD","APOAPSIS":"547.678","RA_OF_ASC_NODE":"164.9015","SEMIMAJOR_AXIS":"6925.181","MEAN_MOTION_DOT":"0.00024285","ARG_OF_PERICENTER":"83.2709","GP_ID":"230657938","CLASSIFICATION_TYPE":"U","BSTAR":"0.00164120000000","ECCENTRICITY":"0.00009130","CENTER_NAME":"EARTH","NORAD_CAT_ID":"46030"},{"REF_FRAME":"TEME","TLE_LINE2":"2 46031  53.0501 164.8788 0000847  80.2289 279.8795 15.06456366150465","EPOCH":"2023-04-23T15:45:27.800928","ELEMENT_SET_NO":"999","RCS_SIZE":"LARGE","LAUNCH_DATE":"2020-08-07","COUNTRY_CODE":"US","MEAN_ELEMENT_THEORY":"SGP4","TIME_SYSTEM":"UTC","REV_AT_EPOCH":"15046","INCLINATION":"53.0501","TLE_LINE1":"1 46031U 20055E   23113.65657177  .00019368  00000-0  13136-2 0  9993","SITE":"AFETR","MEAN_ANOMALY":"279.8795","PERIAPSIS":"546.454","MEAN_MOTION_DDOT":"0.0000000000000","OBJECT_NAME":"STARLINK-1544","FILE":"3892831","EPHEMERIS_TYPE":"0","PERIOD":"95.589","MEAN_MOTION":"15.06456366","NORAD_CAT_ID":"46031","ECCENTRICITY":"0.00008470","CENTER_NAME":"EARTH","BSTAR":"0.00131360000000","CLASSIFICATION_TYPE":"U","GP_ID":"230656192","ARG_OF_PERICENTER":"80.2289","MEAN_MOTION_DOT":"0.00019368","SEMIMAJOR_AXIS":"6925.176","RA_OF_ASC_NODE":"164.8788","APOAPSIS":"547.627","OBJECT_TYPE":"PAYLOAD","OBJECT_ID":"2020-055E","DECAY_DATE":null},{"MEAN_ELEMENT_THEORY":"SGP4","REV_AT_EPOCH":"15045","TIME_SYSTEM":"UTC","REF_FRAME":"TEME","TLE_LINE2":"2 46032  53.0507 165.6458 0001515  76.8256 283.2902 15.06443563150456","EPOCH":"2023-04-23T11:42:40.133664","ELEMENT_SET_NO":"999","RCS_SIZE":"LARGE","LAUNCH_DATE":"2020-08-07","COUNTRY_CODE":"US","NORAD_CAT_ID":"46032","ECCENTRICITY":"0.00015150","CENTER_NAME":"EARTH","BSTAR":"0.00157290000000","CLASSIFICATION_TYPE":"U","GP_ID":"230628250","ARG_OF_PERICENTER":"76.8256","MEAN_MOTION_DOT":"0.00023252","SEMIMAJOR_AXIS":"6925.215","RA_OF_ASC_NODE":"165.6458","APOAPSIS":"548.129","OBJECT_TYPE":"PAYLOAD","OBJECT_ID":"2020-055F","DECAY_DATE":null,"INCLINATION":"53.0507","TLE_LINE1":"1 46032U 20055F   23113.48796451  .00023252  00000-0  15729-2 0  9991","SITE":"AFETR","MEAN_ANOMALY":"283.2902","PERIAPSIS":"546.031","MEAN_MOTION_DDOT":"0.0000000000000","FILE":"3892688","OBJECT_NAME":"STARLINK-1555","EPHEMERIS_TYPE":"0","PERIOD":"95.589","MEAN_MOTION":"15.06443563"},{"RA_OF_ASC_NODE":"165.4296","SEMIMAJOR_AXIS":"6925.182","DECAY_DATE":null,"OBJECT_ID":"2020-055G","OBJECT_TYPE":"PAYLOAD","APOAPSIS":"548.120","BSTAR":"0.00126990000000","ECCENTRICITY":"0.00015500","CENTER_NAME":"EARTH","NORAD_CAT_ID":"46033","ARG_OF_PERICENTER":"96.5719","MEAN_MOTION_DOT":"0.00018712","GP_ID":"230627000","CLASSIFICATION_TYPE":"U","MEAN_MOTION":"15.06454332","PERIOD":"95.589","PERIAPSIS":"545.974","MEAN_ANOMALY":"263.5446","TLE_LINE1":"1 46033U 20055G   23113.53588384  .00018712  00000-0  12699-2 0  9990","SITE":"AFETR","INCLINATION":"53.0518","FILE":"3892688","OBJECT_NAME":"STARLINK-1556","EPHEMERIS_TYPE":"0","MEAN_MOTION_DDOT":"0.0000000000000","TIME_SYSTEM":"UTC","REV_AT_EPOCH":"15043","MEAN_ELEMENT_THEORY":"SGP4","RCS_SIZE":"LARGE","LAUNCH_DATE":"2020-08-07","COUNTRY_CODE":"US","REF_FRAME":"TEME","ELEMENT_SET_NO":"999","TLE_LINE2":"2 46033  53.0518 165.4296 0001550  96.5719 263.5446 15.06454332150437","EPOCH":"2023-04-23T12:51:40.363776"},{"REF_FRAME":"TEME","EPOCH":"2023-04-23T12:56:58.442784","TLE_LINE2":"2 46034  53.0516 165.4116 0000949 127.6916 232.4159 15.06429957149948","ELEMENT_SET_NO":"999","RCS_SIZE":"LARGE","COUNTRY_CODE":"US","LAUNCH_DATE":"2020-08-07","MEAN_ELEMENT_THEORY":"SGP4","REV_AT_EPOCH":"14994","TIME_SYSTEM":"UTC","SITE":"AFETR","TLE_LINE1":"1 46034U 20055H   23113.53956531  .00012140  00000-0  83180-3 0  9997","INCLINATION":"53.0516","MEAN_ANOMALY":"232.4159","PERIAPSIS":"546.465","MEAN_MOTION_DDOT":"0.0000000000000","OBJECT_NAME":"STARLINK-1557","FILE":"3892583","EPHEMERIS_TYPE":"0","PERIOD":"95.590","MEAN_MOTION":"15.06429957","NORAD_CAT_ID":"46034","ECCENTRICITY":"0.00009490","CENTER_NAME":"EARTH","BSTAR":"0.00083180000000","CLASSIFICATION_TYPE":"U","GP_ID":"230604986","MEAN_MOTION_DOT":"0.00012140","ARG_OF_PERICENTER":"127.6916","SEMIMAJOR_AXIS":"6925.257","RA_OF_ASC_NODE":"165.4116","OBJECT_TYPE":"PAYLOAD","APOAPSIS":"547.779","DECAY_DATE":null,"OBJECT_ID":"2020-055H"},{"TLE_LINE2":"2 46035  53.0518 165.0837 0001602  90.8926 269.2246 15.06443810150475","EPOCH":"2023-04-23T14:43:07.833504","ELEMENT_SET_NO":"999","REF_FRAME":"TEME","LAUNCH_DATE":"2020-08-07","COUNTRY_CODE":"US","RCS_SIZE":"LARGE","MEAN_ELEMENT_THEORY":"SGP4","TIME_SYSTEM":"UTC","REV_AT_EPOCH":"15047","FILE":"3892831","OBJECT_NAME":"STARLINK-1558","EPHEMERIS_TYPE":"0","MEAN_MOTION_DDOT":"0.0000000000000","PERIAPSIS":"545.970","TLE_LINE1":"1 46035U 20055J   23113.61328511  .00019987  00000-0  13553-2 0  9990","INCLINATION":"53.0518","SITE":"AFETR","MEAN_ANOMALY":"269.2246","MEAN_MOTION":"15.06443810","PERIOD":"95.589","ARG_OF_PERICENTER":"90.8926","MEAN_MOTION_DOT":"0.00019987","CLASSIFICATION_TYPE":"U","GP_ID":"230656693","BSTAR":"0.00135530000000","NORAD_CAT_ID":"46035","ECCENTRICITY":"0.00016020","CENTER_NAME":"EARTH","DECAY_DATE":null,"OBJECT_ID":"2020-055J","OBJECT_TYPE":"PAYLOAD","APOAPSIS":"548.189","RA_OF_ASC_NODE":"165.0837","SEMIMAJOR_AXIS":"6925.214"},{"OBJECT_TYPE":"PAYLOAD","APOAPSIS":"547.986","DECAY_DATE":null,"OBJECT_ID":"2020-055K","SEMIMAJOR_AXIS":"6925.246","RA_OF_ASC_NODE":"165.4429","CLASSIFICATION_TYPE":"U","GP_ID":"230636579","MEAN_MOTION_DOT":"0.00021403","ARG_OF_PERICENTER":"69.8778","NORAD_CAT_ID":"46036","ECCENTRICITY":"0.00012630","CENTER_NAME":"EARTH","BSTAR":"0.00145010000000","PERIOD":"95.590","MEAN_MOTION":"15.06433345","MEAN_MOTION_DDOT":"0.0000000000000","EPHEMERIS_TYPE":"0","FILE":"3892765","OBJECT_NAME":"STARLINK-1560","TLE_LINE1":"1 46036U 20055K   23113.53220122  .00021403  00000-0  14501-2 0  9991","INCLINATION":"53.0520","SITE":"AFETR","MEAN_ANOMALY":"290.2347","PERIAPSIS":"546.237","REV_AT_EPOCH":"14994","TIME_SYSTEM":"UTC","MEAN_ELEMENT_THEORY":"SGP4","COUNTRY_CODE":"US","LAUNCH_DATE":"2020-08-07","RCS_SIZE":"LARGE","TLE_LINE2":"2 46036  53.0520 165.4429 0001263  69.8778 290.2347 15.06433345149942","EPOCH":"2023-04-23T12:46:22.185408","ELEMENT_SET_NO":"999","REF_FRAME":"TEME"},{"RCS_SIZE":"LARGE","LAUNCH_DATE":"2020-08-07","COUNTRY_CODE":"US","REF_FRAME":"TEME","EPOCH":"2023-04-23T15:52:07.144320","TLE_LINE2":"2 46037  53.0509 164.8689 0001080  73.3694 286.7413 15.06443368150475","ELEMENT_SET_NO":"999","REV_AT_EPOCH":"15047","TIME_SYSTEM":"UTC","MEAN_ELEMENT_THEORY":"SGP4","PERIOD":"95.589","MEAN_MOTION":"15.06443368","TLE_LINE1":"1 46037U 20055L   23113.66119380  .00021176  00000-0  14346-2 0  9993","SITE":"AFETR","INCLINATION":"53.0509","MEAN_ANOMALY":"286.7413","PERIAPSIS":"546.333","MEAN_MOTION_DDOT":"0.0000000000000","OBJECT_NAME":"STARLINK-1565","FILE":"3892831","EPHEMERIS_TYPE":"0","SEMIMAJOR_AXIS":"6925.216","RA_OF_ASC_NODE":"164.8689","APOAPSIS":"547.829","OBJECT_TYPE":"PAYLOAD","OBJECT_ID":"2020-055L","DECAY_DATE":null,"NORAD_CAT_ID":"46037","CENTER_NAME":"EARTH","ECCENTRICITY":"0.00010800","BSTAR":"0.00143460000000","CLASSIFICATION_TYPE":"U","GP_ID":"230657693","ARG_OF_PERICENTER":"73.3694","MEAN_MOTION_DOT":"0.00021176"}];
